ONEWEB-0387             
1 49313U 21090AL  25089.50760259  .00000039  00000+0  64584-4 0  9992
2 49313  87.9320   2.8103 0001733  90.6145 269.5187 13.20770385172569
ONEWEB-0388             
1 49314U 21090AM  25089.19725820 -.00000215  00000+0 -56862-3 0  9990
2 49314  87.9243  33.2241 0001929  81.8282 278.3070 13.19725667169146
ONEWEB-0389             
1 50469U 21132A   25089.50367886  .00000024  00000+0  27567-4 0  9996
2 50469  87.9004  94.2423 0001974 103.3028 256.8324 13.17649078160942
ONEWEB-0390             
1 50470U 21132B   25089.50537438  .00000040  00000+0  69168-4 0  9991
2 50470  87.9003  94.2489 0001625  90.2656 269.8662 13.17650781160941
ONEWEB-0391             
1 50471U 21132C   25089.50703822 -.00000011  00000+0 -61699-4 0  9995
2 50471  87.9010  94.2550 0001864 119.1111 241.0208 13.17652613160945
ONEWEB-0392             
1 50472U 21132D   25089.53742438  .00000048  00000+0  90128-4 0  9992
2 50472  87.8997  94.2080 0001942 104.0181 256.1167 13.17651580160981
ONEWEB-0393             
1 50473U 21132E   25088.75120133  .00000032  00000+0  48295-4 0  9999
2 50473  87.9006  94.3706 0001886  97.0355 263.0991 13.17651092159585
ONEWEB-0394             
1 50474U 21132F   25089.22033504  .00000024  00000+0  28282-4 0  9993
2 50474  87.9083  63.6979 0001965  88.2928 271.8429 13.18688088164358
